{"type":"FeatureCollection","dates":["2026-07-10","2026-07-11","2026-07-12","2026-07-13","2026-07-14","2026-07-15","2026-07-16"],"properties":{"model":"GRU","input_window":7,"forecast_horizon":7,"targets":["heat_index","wind_chill"],"n_stations":26},"features":[{"type":"Feature","geometry":{"type":"Point","coordinates":[-7.66049,33.55698]},"properties":{"station_id":"60155099999","station_name":"Anfa","lat":33.55698,"lon":-7.66049,"elevation":61.87,"last_obs_date":"2026-07-09","dates":["2026-07-10","2026-07-11","2026-07-12","2026-07-13","2026-07-14","2026-07-15","2026-07-16"],"hi":[28.92,29.08,29.21,29.25,29.28,29.31,29.3],"wc":[20.72,20.48,20.38,20.35,20.29,20.29,20.29],"sev":[-3.08,-2.92,-2.79,-2.75,-2.72,-2.69,-2.7],"lvl":["none","none","none","none","none","none","none"],"severity":-2.69,"alert_level":"none"}},{"type":"Feature","geometry":{"type":"Point","coordinates":[-1.92399,34.78715]},"properties":{"station_id":"60115099999","station_name":"Angads","lat":34.78715,"lon":-1.92399,"elevation":467.86,"last_obs_date":"2026-07-09","dates":["2026-07-10","2026-07-11","2026-07-12","2026-07-13","2026-07-14","2026-07-15","2026-07-16"],"hi":[30.61,30.39,30.28,30.2,30.15,30.11,30.05],"wc":[14.24,14.36,14.37,14.36,14.33,14.35,14.34],"sev":[-1.39,-1.61,-1.72,-1.8,-1.85,-1.89,-1.95],"lvl":["none","none","none","none","none","none","none"],"severity":-1.39,"alert_level":"none"}},{"type":"Feature","geometry":{"type":"Point","coordinates":[-5.51513,33.87907]},"properties":{"station_id":"60150099999","station_name":"Bassatine","lat":33.87907,"lon":-5.51513,"elevation":576.07,"last_obs_date":"2026-07-09","dates":["2026-07-10","2026-07-11","2026-07-12","2026-07-13","2026-07-14","2026-07-15","2026-07-16"],"hi":[32.41,32.38,32.41,32.4,32.4,32.4,32.35],"wc":[17.11,17.2,17.24,17.27,17.26,17.3,17.31],"sev":[0.41,0.38,0.41,0.4,0.4,0.4,0.35],"lvl":["yellow","yellow","yellow","yellow","yellow","yellow","yellow"],"severity":0.41,"alert_level":"yellow"}},{"type":"Feature","geometry":{"type":"Point","coordinates":[-5.3,35.16667]},"properties":{"station_id":"60106099999","station_name":"Chefchaouen","lat":35.16667,"lon":-5.3,"elevation":305.0,"last_obs_date":"2026-07-09","dates":["2026-07-10","2026-07-11","2026-07-12","2026-07-13","2026-07-14","2026-07-15","2026-07-16"],"hi":[31.77,31.73,31.74,31.73,31.72,31.72,31.67],"wc":[16.79,16.96,17.04,17.09,17.1,17.14,17.15],"sev":[-0.23,-0.27,-0.26,-0.27,-0.28,-0.28,-0.33],"lvl":["none","none","none","none","none","none","none"],"severity":-0.23,"alert_level":"none"}},{"type":"Feature","geometry":{"type":"Point","coordinates":[-4.39833,31.9475]},"properties":{"station_id":"60210099999","station_name":"Moulay Ali Cherif","lat":31.9475,"lon":-4.39833,"elevation":1044.85,"last_obs_date":"2026-07-09","dates":["2026-07-10","2026-07-11","2026-07-12","2026-07-13","2026-07-14","2026-07-15","2026-07-16"],"hi":[35.64,34.78,34.27,33.93,33.72,33.57,33.42],"wc":[20.26,19.99,19.61,19.33,19.13,19.05,18.94],"sev":[3.64,2.78,2.27,1.93,1.72,1.57,1.42],"lvl":["orange","orange","orange","yellow","yellow","yellow","yellow"],"severity":3.64,"alert_level":"orange"}},{"type":"Feature","geometry":{"type":"Point","coordinates":[-15.86667,23.7]},"properties":{"station_id":"60096099999","station_name":"Villa Cisneros Mil","lat":23.7,"lon":-15.86667,"elevation":10.0,"last_obs_date":"2026-07-09","dates":["2026-07-10","2026-07-11","2026-07-12","2026-07-13","2026-07-14","2026-07-15","2026-07-16"],"hi":[28.43,27.87,27.52,27.28,27.13,27.02,26.92],"wc":[18.32,17.96,17.62,17.37,17.19,17.08,16.97],"sev":[-3.57,-4.13,-4.48,-4.72,-4.87,-4.98,-5.08],"lvl":["none","none","none","none","none","none","none"],"severity":-3.57,"alert_level":"none"}},{"type":"Feature","geometry":{"type":"Point","coordinates":[-15.93199,23.71829]},"properties":{"station_id":"60034099999","station_name":"Dakhla","lat":23.71829,"lon":-15.93199,"elevation":6.09,"last_obs_date":"2026-07-09","dates":["2026-07-10","2026-07-11","2026-07-12","2026-07-13","2026-07-14","2026-07-15","2026-07-16"],"hi":[22.64,22.71,22.75,22.75,22.75,22.76,22.75],"wc":[17.55,17.3,17.18,17.1,17.03,16.98,16.96],"sev":[-9.36,-9.29,-9.25,-9.25,-9.25,-9.24,-9.25],"lvl":["none","none","none","none","none","none","none"],"severity":-9.24,"alert_level":"none"}},{"type":"Feature","geometry":{"type":"Point","coordinates":[-9.68299,31.39918]},"properties":{"station_id":"60220099999","station_name":"Essaouira","lat":31.39918,"lon":-9.68299,"elevation":128.02,"last_obs_date":"2026-07-09","dates":["2026-07-10","2026-07-11","2026-07-12","2026-07-13","2026-07-14","2026-07-15","2026-07-16"],"hi":[27.49,27.75,27.94,28.02,28.07,28.11,28.12],"wc":[17.19,16.98,16.96,16.96,16.94,16.94,16.95],"sev":[-4.51,-4.25,-4.06,-3.98,-3.93,-3.89,-3.88],"lvl":["none","none","none","none","none","none","none"],"severity":-3.88,"alert_level":"none"}},{"type":"Feature","geometry":{"type":"Point","coordinates":[-10.06667,29.01667]},"properties":{"station_id":"60280099999","station_name":"Guelmin","lat":29.01667,"lon":-10.06667,"elevation":341.0,"last_obs_date":"2026-07-09","dates":["2026-07-10","2026-07-11","2026-07-12","2026-07-13","2026-07-14","2026-07-15","2026-07-16"],"hi":[33.52,33.75,33.94,34.02,34.08,34.12,34.11],"wc":[17.16,17.15,17.22,17.3,17.32,17.38,17.43],"sev":[1.52,1.75,1.94,2.02,2.08,2.12,2.11],"lvl":["yellow","yellow","yellow","orange","orange","orange","orange"],"severity":2.12,"alert_level":"orange"}},{"type":"Feature","geometry":{"type":"Point","coordinates":[-13.21917,27.15167]},"properties":{"station_id":"60033099999","station_name":"Hassan I","lat":27.15167,"lon":-13.21917,"elevation":63.09,"last_obs_date":"2026-07-09","dates":["2026-07-10","2026-07-11","2026-07-12","2026-07-13","2026-07-14","2026-07-15","2026-07-16"],"hi":[29.84,29.36,29.08,28.88,28.74,28.65,28.57],"wc":[17.75,17.35,17.02,16.79,16.61,16.52,16.43],"sev":[-2.16,-2.64,-2.92,-3.12,-3.26,-3.35,-3.43],"lvl":["none","none","none","none","none","none","none"],"severity":-2.16,"alert_level":"none"}},{"type":"Feature","geometry":{"type":"Point","coordinates":[-3.83953,35.1771]},"properties":{"station_id":"60107099999","station_name":"Cherif El Idrissi","lat":35.1771,"lon":-3.83953,"elevation":27.12,"last_obs_date":"2026-07-09","dates":["2026-07-10","2026-07-11","2026-07-12","2026-07-13","2026-07-14","2026-07-15","2026-07-16"],"hi":[31.38,31.06,30.89,30.75,30.66,30.61,30.53],"wc":[21.44,21.24,21.04,20.9,20.78,20.74,20.69],"sev":[-0.62,-0.94,-1.11,-1.25,-1.34,-1.39,-1.47],"lvl":["none","none","none","none","none","none","none"],"severity":-0.62,"alert_level":"none"}},{"type":"Feature","geometry":{"type":"Point","coordinates":[-10.18027,29.36898]},"properties":{"station_id":"60060099999","station_name":"Sidi Ifni","lat":29.36898,"lon":-10.18027,"elevation":59.0,"last_obs_date":"2026-07-09","dates":["2026-07-10","2026-07-11","2026-07-12","2026-07-13","2026-07-14","2026-07-15","2026-07-16"],"hi":[24.84,25.0,25.11,25.15,25.17,25.2,25.19],"wc":[18.78,18.56,18.47,18.42,18.36,18.34,18.33],"sev":[-7.16,-7.0,-6.89,-6.85,-6.83,-6.8,-6.81],"lvl":["none","none","none","none","none","none","none"],"severity":-6.8,"alert_level":"none"}},{"type":"Feature","geometry":{"type":"Point","coordinates":[-6.1,35.15]},"properties":{"station_id":"60105099999","station_name":"Larache","lat":35.15,"lon":-6.1,"elevation":49.0,"last_obs_date":"2026-07-09","dates":["2026-07-10","2026-07-11","2026-07-12","2026-07-13","2026-07-14","2026-07-15","2026-07-16"],"hi":[30.81,31.01,31.17,31.24,31.27,31.32,31.31],"wc":[19.44,19.27,19.24,19.25,19.22,19.25,19.27],"sev":[-1.19,-0.99,-0.83,-0.76,-0.73,-0.68,-0.69],"lvl":["none","none","none","none","none","none","none"],"severity":-0.68,"alert_level":"none"}},{"type":"Feature","geometry":{"type":"Point","coordinates":[-9.41307,30.325]},"properties":{"station_id":"60252099999","station_name":"Al Massira","lat":30.325,"lon":-9.41307,"elevation":76.2,"last_obs_date":"2026-07-09","dates":["2026-07-10","2026-07-11","2026-07-12","2026-07-13","2026-07-14","2026-07-15","2026-07-16"],"hi":[29.36,29.16,29.06,28.97,28.91,28.88,28.82],"wc":[19.09,18.86,18.68,18.56,18.45,18.41,18.37],"sev":[-2.64,-2.84,-2.94,-3.03,-3.09,-3.12,-3.18],"lvl":["none","none","none","none","none","none","none"],"severity":-2.64,"alert_level":"none"}},{"type":"Feature","geometry":{"type":"Point","coordinates":[-6.4,32.36667]},"properties":{"station_id":"60191099999","station_name":"Beni Mellal","lat":32.36667,"lon":-6.4,"elevation":472.0,"last_obs_date":"2026-07-09","dates":["2026-07-10","2026-07-11","2026-07-12","2026-07-13","2026-07-14","2026-07-15","2026-07-16"],"hi":[35.5,34.72,34.28,33.97,33.78,33.65,33.51],"wc":[20.14,19.91,19.58,19.34,19.16,19.09,18.99],"sev":[3.5,2.72,2.28,1.97,1.78,1.65,1.51],"lvl":["orange","orange","orange","yellow","yellow","yellow","yellow"],"severity":3.5,"alert_level":"orange"}},{"type":"Feature","geometry":{"type":"Point","coordinates":[-8.0363,31.60689]},"properties":{"station_id":"60230099999","station_name":"Menara","lat":31.60689,"lon":-8.0363,"elevation":467.86,"last_obs_date":"2026-07-09","dates":["2026-07-10","2026-07-11","2026-07-12","2026-07-13","2026-07-14","2026-07-15","2026-07-16"],"hi":[36.29,35.58,35.18,34.91,34.73,34.62,34.48],"wc":[19.67,19.47,19.17,18.96,18.8,18.75,18.67],"sev":[4.29,3.58,3.18,2.91,2.73,2.62,2.48],"lvl":["orange","orange","orange","orange","orange","orange","orange"],"severity":4.29,"alert_level":"orange"}},{"type":"Feature","geometry":{"type":"Point","coordinates":[-4.73333,32.68333]},"properties":{"station_id":"60195099999","station_name":"Midelt","lat":32.68333,"lon":-4.73333,"elevation":1515.0,"last_obs_date":"2026-07-09","dates":["2026-07-10","2026-07-11","2026-07-12","2026-07-13","2026-07-14","2026-07-15","2026-07-16"],"hi":[30.69,29.77,29.2,28.84,28.61,28.43,28.3],"wc":[13.99,13.78,13.43,13.15,12.95,12.84,12.71],"sev":[-1.31,-2.23,-2.8,-3.16,-3.39,-3.57,-3.7],"lvl":["none","none","none","none","none","none","none"],"severity":-1.31,"alert_level":"none"}},{"type":"Feature","geometry":{"type":"Point","coordinates":[-7.58997,33.36747]},"properties":{"station_id":"60156099999","station_name":"Mohammed V","lat":33.36747,"lon":-7.58997,"elevation":199.94,"last_obs_date":"2026-07-09","dates":["2026-07-10","2026-07-11","2026-07-12","2026-07-13","2026-07-14","2026-07-15","2026-07-16"],"hi":[33.62,33.54,33.53,33.49,33.46,33.46,33.41],"wc":[18.76,18.59,18.48,18.43,18.36,18.37,18.37],"sev":[1.62,1.54,1.53,1.49,1.46,1.46,1.41],"lvl":["yellow","yellow","yellow","yellow","yellow","yellow","yellow"],"severity":1.62,"alert_level":"yellow"}},{"type":"Feature","geometry":{"type":"Point","coordinates":[-3.01667,34.98333]},"properties":{"station_id":"60340099999","station_name":"Nador Aroui","lat":34.98333,"lon":-3.01667,"elevation":177.0,"last_obs_date":"2026-07-09","dates":["2026-07-10","2026-07-11","2026-07-12","2026-07-13","2026-07-14","2026-07-15","2026-07-16"],"hi":[31.92,31.43,31.16,30.97,30.85,30.77,30.67],"wc":[18.53,18.48,18.31,18.18,18.06,18.03,17.97],"sev":[-0.08,-0.57,-0.84,-1.03,-1.15,-1.23,-1.33],"lvl":["none","none","none","none","none","none","none"],"severity":-0.08,"alert_level":"none"}},{"type":"Feature","geometry":{"type":"Point","coordinates":[-6.90943,30.93905]},"properties":{"station_id":"60265099999","station_name":"Ouarzazate","lat":30.93905,"lon":-6.90943,"elevation":1153.05,"last_obs_date":"2026-07-09","dates":["2026-07-10","2026-07-11","2026-07-12","2026-07-13","2026-07-14","2026-07-15","2026-07-16"],"hi":[35.05,34.2,33.7,33.37,33.17,33.02,32.87],"wc":[18.09,17.89,17.55,17.3,17.12,17.04,16.93],"sev":[3.05,2.2,1.7,1.37,1.17,1.02,0.87],"lvl":["orange","orange","yellow","yellow","yellow","yellow","yellow"],"severity":3.05,"alert_level":"orange"}},{"type":"Feature","geometry":{"type":"Point","coordinates":[-11.16135,28.44819]},"properties":{"station_id":"60285099999","station_name":"Plage Blanche","lat":28.44819,"lon":-11.16135,"elevation":199.03,"last_obs_date":"2026-07-09","dates":["2026-07-10","2026-07-11","2026-07-12","2026-07-13","2026-07-14","2026-07-15","2026-07-16"],"hi":[28.65,28.74,28.83,28.85,28.86,28.88,28.87],"wc":[17.48,17.32,17.27,17.25,17.21,17.21,17.21],"sev":[-3.35,-3.26,-3.17,-3.15,-3.14,-3.12,-3.13],"lvl":["none","none","none","none","none","none","none"],"severity":-3.12,"alert_level":"none"}},{"type":"Feature","geometry":{"type":"Point","coordinates":[-5.32002,35.59433]},"properties":{"station_id":"60318099999","station_name":"Saniat Rmel","lat":35.59433,"lon":-5.32002,"elevation":3.04,"last_obs_date":"2026-07-09","dates":["2026-07-10","2026-07-11","2026-07-12","2026-07-13","2026-07-14","2026-07-15","2026-07-16"],"hi":[29.51,29.27,29.15,29.06,28.99,28.96,28.89],"wc":[19.47,19.5,19.43,19.38,19.31,19.3,19.27],"sev":[-2.49,-2.73,-2.85,-2.94,-3.01,-3.04,-3.11],"lvl":["none","none","none","none","none","none","none"],"severity":-2.49,"alert_level":"none"}},{"type":"Feature","geometry":{"type":"Point","coordinates":[-9.23333,32.28333]},"properties":{"station_id":"60185099999","station_name":"Safi","lat":32.28333,"lon":-9.23333,"elevation":45.0,"last_obs_date":"2026-07-09","dates":["2026-07-10","2026-07-11","2026-07-12","2026-07-13","2026-07-14","2026-07-15","2026-07-16"],"hi":[27.21,27.37,27.5,27.55,27.57,27.6,27.59],"wc":[18.73,18.44,18.34,18.29,18.23,18.21,18.21],"sev":[-4.79,-4.63,-4.5,-4.45,-4.43,-4.4,-4.41],"lvl":["none","none","none","none","none","none","none"],"severity":-4.4,"alert_level":"none"}},{"type":"Feature","geometry":{"type":"Point","coordinates":[-4.97796,33.92726]},"properties":{"station_id":"60141099999","station_name":"Saiss","lat":33.92726,"lon":-4.97796,"elevation":579.12,"last_obs_date":"2026-07-09","dates":["2026-07-10","2026-07-11","2026-07-12","2026-07-13","2026-07-14","2026-07-15","2026-07-16"],"hi":[33.2,33.04,32.99,32.93,32.9,32.88,32.82],"wc":[18.2,18.2,18.16,18.14,18.09,18.11,18.1],"sev":[1.2,1.04,0.99,0.93,0.9,0.88,0.82],"lvl":["yellow","yellow","yellow","yellow","yellow","yellow","yellow"],"severity":1.2,"alert_level":"yellow"}},{"type":"Feature","geometry":{"type":"Point","coordinates":[-6.75152,34.05147]},"properties":{"station_id":"60135099999","station_name":"Sale","lat":34.05147,"lon":-6.75152,"elevation":84.12,"last_obs_date":"2026-07-09","dates":["2026-07-10","2026-07-11","2026-07-12","2026-07-13","2026-07-14","2026-07-15","2026-07-16"],"hi":[30.9,30.91,30.94,30.93,30.92,30.93,30.9],"wc":[19.94,19.68,19.55,19.48,19.4,19.4,19.39],"sev":[-1.1,-1.09,-1.06,-1.07,-1.08,-1.07,-1.1],"lvl":["none","none","none","none","none","none","none"],"severity":-1.06,"alert_level":"none"}},{"type":"Feature","geometry":{"type":"Point","coordinates":[-4.0,34.21667]},"properties":{"station_id":"60127099999","station_name":"Taza","lat":34.21667,"lon":-4.0,"elevation":510.0,"last_obs_date":"2026-07-09","dates":["2026-07-10","2026-07-11","2026-07-12","2026-07-13","2026-07-14","2026-07-15","2026-07-16"],"hi":[32.89,32.51,32.31,32.16,32.06,31.99,31.91],"wc":[17.75,17.68,17.55,17.45,17.36,17.34,17.3],"sev":[0.89,0.51,0.31,0.16,0.06,-0.01,-0.09],"lvl":["yellow","yellow","yellow","yellow","yellow","none","none"],"severity":0.89,"alert_level":"yellow"}}]}