{
  "type": "FeatureCollection",
  "features": [
    {
      "type": "Feature",
      "geometry": {
        "type": "Point",
        "coordinates": [
          -7.5898,
          33.5731
        ]
      },
      "properties": {
        "name": "Casablanca",
        "alert_level": "orange",
        "severity": 3.3,
        "forecasts": [
          {
            "day": 0,
            "date": "2026-05-24",
            "tmax": 29.6,
            "tmin": 17.3,
            "rh": 28.6,
            "heat_index": 29.6,
            "severity": 3.3,
            "alert_level": "orange"
          },
          {
            "day": 1,
            "date": "2026-05-25",
            "tmax": 29.0,
            "tmin": 16.9,
            "rh": 28.5,
            "heat_index": 29.0,
            "severity": 2.8,
            "alert_level": "orange"
          },
          {
            "day": 2,
            "date": "2026-05-26",
            "tmax": 28.7,
            "tmin": 16.5,
            "rh": 30.4,
            "heat_index": 28.7,
            "severity": 2.4,
            "alert_level": "orange"
          },
          {
            "day": 3,
            "date": "2026-05-27",
            "tmax": 28.5,
            "tmin": 16.1,
            "rh": 33.5,
            "heat_index": 28.5,
            "severity": 2.2,
            "alert_level": "orange"
          },
          {
            "day": 4,
            "date": "2026-05-28",
            "tmax": 27.8,
            "tmin": 16.1,
            "rh": 35.0,
            "heat_index": 27.8,
            "severity": 1.5,
            "alert_level": "yellow"
          },
          {
            "day": 5,
            "date": "2026-05-29",
            "tmax": 27.5,
            "tmin": 15.7,
            "rh": 37.9,
            "heat_index": 27.5,
            "severity": 1.2,
            "alert_level": "yellow"
          },
          {
            "day": 6,
            "date": "2026-05-30",
            "tmax": 27.3,
            "tmin": 15.9,
            "rh": 36.2,
            "heat_index": 27.3,
            "severity": 1.0,
            "alert_level": "yellow"
          }
        ]
      }
    },
    {
      "type": "Feature",
      "geometry": {
        "type": "Point",
        "coordinates": [
          -6.8416,
          34.0209
        ]
      },
      "properties": {
        "name": "Rabat",
        "alert_level": "orange",
        "severity": 3.4,
        "forecasts": [
          {
            "day": 0,
            "date": "2026-05-24",
            "tmax": 29.1,
            "tmin": 16.7,
            "rh": 29.8,
            "heat_index": 29.1,
            "severity": 3.4,
            "alert_level": "orange"
          },
          {
            "day": 1,
            "date": "2026-05-25",
            "tmax": 28.8,
            "tmin": 16.6,
            "rh": 30.3,
            "heat_index": 28.8,
            "severity": 3.1,
            "alert_level": "orange"
          },
          {
            "day": 2,
            "date": "2026-05-26",
            "tmax": 28.4,
            "tmin": 16.1,
            "rh": 33.0,
            "heat_index": 28.4,
            "severity": 2.7,
            "alert_level": "orange"
          },
          {
            "day": 3,
            "date": "2026-05-27",
            "tmax": 28.5,
            "tmin": 15.9,
            "rh": 36.2,
            "heat_index": 28.5,
            "severity": 2.8,
            "alert_level": "orange"
          },
          {
            "day": 4,
            "date": "2026-05-28",
            "tmax": 27.9,
            "tmin": 16.0,
            "rh": 37.8,
            "heat_index": 27.9,
            "severity": 2.2,
            "alert_level": "orange"
          },
          {
            "day": 5,
            "date": "2026-05-29",
            "tmax": 27.9,
            "tmin": 15.9,
            "rh": 40.3,
            "heat_index": 27.9,
            "severity": 2.2,
            "alert_level": "orange"
          },
          {
            "day": 6,
            "date": "2026-05-30",
            "tmax": 27.6,
            "tmin": 16.2,
            "rh": 38.8,
            "heat_index": 27.6,
            "severity": 1.9,
            "alert_level": "yellow"
          }
        ]
      }
    },
    {
      "type": "Feature",
      "geometry": {
        "type": "Point",
        "coordinates": [
          -7.9811,
          31.6295
        ]
      },
      "properties": {
        "name": "Marrakech",
        "alert_level": "yellow",
        "severity": 2.0,
        "forecasts": [
          {
            "day": 0,
            "date": "2026-05-24",
            "tmax": 36.6,
            "tmin": 21.6,
            "rh": 14.3,
            "heat_index": 36.6,
            "severity": 2.0,
            "alert_level": "yellow"
          },
          {
            "day": 1,
            "date": "2026-05-25",
            "tmax": 36.5,
            "tmin": 21.5,
            "rh": 16.5,
            "heat_index": 36.5,
            "severity": 1.9,
            "alert_level": "yellow"
          },
          {
            "day": 2,
            "date": "2026-05-26",
            "tmax": 35.7,
            "tmin": 21.1,
            "rh": 17.3,
            "heat_index": 35.7,
            "severity": 1.1,
            "alert_level": "yellow"
          },
          {
            "day": 3,
            "date": "2026-05-27",
            "tmax": 35.2,
            "tmin": 20.7,
            "rh": 18.3,
            "heat_index": 35.2,
            "severity": 0.6,
            "alert_level": "yellow"
          },
          {
            "day": 4,
            "date": "2026-05-28",
            "tmax": 34.9,
            "tmin": 20.8,
            "rh": 20.0,
            "heat_index": 34.9,
            "severity": 0.2,
            "alert_level": "yellow"
          },
          {
            "day": 5,
            "date": "2026-05-29",
            "tmax": 33.5,
            "tmin": 20.3,
            "rh": 20.7,
            "heat_index": 33.5,
            "severity": 0.0,
            "alert_level": "none"
          },
          {
            "day": 6,
            "date": "2026-05-30",
            "tmax": 33.6,
            "tmin": 20.3,
            "rh": 20.1,
            "heat_index": 33.6,
            "severity": 0.0,
            "alert_level": "none"
          }
        ]
      }
    },
    {
      "type": "Feature",
      "geometry": {
        "type": "Point",
        "coordinates": [
          -9.5981,
          30.4278
        ]
      },
      "properties": {
        "name": "Agadir",
        "alert_level": "red",
        "severity": 5.9,
        "forecasts": [
          {
            "day": 0,
            "date": "2026-05-24",
            "tmax": 36.5,
            "tmin": 21.9,
            "rh": 27.6,
            "heat_index": 36.5,
            "severity": 4.8,
            "alert_level": "orange"
          },
          {
            "day": 1,
            "date": "2026-05-25",
            "tmax": 37.1,
            "tmin": 22.0,
            "rh": 27.4,
            "heat_index": 37.2,
            "severity": 5.5,
            "alert_level": "red"
          },
          {
            "day": 2,
            "date": "2026-05-26",
            "tmax": 36.8,
            "tmin": 22.4,
            "rh": 27.0,
            "heat_index": 36.8,
            "severity": 5.2,
            "alert_level": "red"
          },
          {
            "day": 3,
            "date": "2026-05-27",
            "tmax": 37.6,
            "tmin": 22.0,
            "rh": 22.0,
            "heat_index": 37.6,
            "severity": 5.9,
            "alert_level": "red"
          },
          {
            "day": 4,
            "date": "2026-05-28",
            "tmax": 37.1,
            "tmin": 22.4,
            "rh": 21.9,
            "heat_index": 37.1,
            "severity": 5.5,
            "alert_level": "red"
          },
          {
            "day": 5,
            "date": "2026-05-29",
            "tmax": 36.2,
            "tmin": 23.6,
            "rh": 21.0,
            "heat_index": 36.2,
            "severity": 4.6,
            "alert_level": "orange"
          },
          {
            "day": 6,
            "date": "2026-05-30",
            "tmax": 36.1,
            "tmin": 23.1,
            "rh": 22.5,
            "heat_index": 36.1,
            "severity": 4.5,
            "alert_level": "orange"
          }
        ]
      }
    },
    {
      "type": "Feature",
      "geometry": {
        "type": "Point",
        "coordinates": [
          -5.0003,
          34.0331
        ]
      },
      "properties": {
        "name": "F\u00e8s",
        "alert_level": "none",
        "severity": 0.0,
        "forecasts": [
          {
            "day": 0,
            "date": "2026-05-24",
            "tmax": 31.9,
            "tmin": 17.3,
            "rh": 18.8,
            "heat_index": 31.9,
            "severity": 0.0,
            "alert_level": "none"
          },
          {
            "day": 1,
            "date": "2026-05-25",
            "tmax": 31.5,
            "tmin": 17.2,
            "rh": 20.8,
            "heat_index": 31.5,
            "severity": 0.0,
            "alert_level": "none"
          },
          {
            "day": 2,
            "date": "2026-05-26",
            "tmax": 31.2,
            "tmin": 17.1,
            "rh": 23.1,
            "heat_index": 31.2,
            "severity": 0.0,
            "alert_level": "none"
          },
          {
            "day": 3,
            "date": "2026-05-27",
            "tmax": 31.2,
            "tmin": 16.9,
            "rh": 26.1,
            "heat_index": 31.2,
            "severity": 0.0,
            "alert_level": "none"
          },
          {
            "day": 4,
            "date": "2026-05-28",
            "tmax": 31.1,
            "tmin": 17.0,
            "rh": 27.0,
            "heat_index": 31.1,
            "severity": 0.0,
            "alert_level": "none"
          },
          {
            "day": 5,
            "date": "2026-05-29",
            "tmax": 31.3,
            "tmin": 17.2,
            "rh": 29.9,
            "heat_index": 31.3,
            "severity": 0.0,
            "alert_level": "none"
          },
          {
            "day": 6,
            "date": "2026-05-30",
            "tmax": 30.9,
            "tmin": 17.7,
            "rh": 27.9,
            "heat_index": 30.9,
            "severity": 0.0,
            "alert_level": "none"
          }
        ]
      }
    },
    {
      "type": "Feature",
      "geometry": {
        "type": "Point",
        "coordinates": [
          -5.834,
          35.7595
        ]
      },
      "properties": {
        "name": "Tanger",
        "alert_level": "none",
        "severity": 0.0,
        "forecasts": [
          {
            "day": 0,
            "date": "2026-05-24",
            "tmax": 22.7,
            "tmin": 12.7,
            "rh": 44.4,
            "heat_index": 22.7,
            "severity": 0.0,
            "alert_level": "none"
          },
          {
            "day": 1,
            "date": "2026-05-25",
            "tmax": 21.8,
            "tmin": 12.5,
            "rh": 42.2,
            "heat_index": 21.8,
            "severity": 0.0,
            "alert_level": "none"
          },
          {
            "day": 2,
            "date": "2026-05-26",
            "tmax": 21.6,
            "tmin": 12.1,
            "rh": 43.3,
            "heat_index": 21.6,
            "severity": 0.0,
            "alert_level": "none"
          },
          {
            "day": 3,
            "date": "2026-05-27",
            "tmax": 21.7,
            "tmin": 12.0,
            "rh": 44.7,
            "heat_index": 21.7,
            "severity": 0.0,
            "alert_level": "none"
          },
          {
            "day": 4,
            "date": "2026-05-28",
            "tmax": 21.8,
            "tmin": 11.6,
            "rh": 44.8,
            "heat_index": 21.8,
            "severity": 0.0,
            "alert_level": "none"
          },
          {
            "day": 5,
            "date": "2026-05-29",
            "tmax": 21.9,
            "tmin": 11.9,
            "rh": 44.4,
            "heat_index": 21.9,
            "severity": 0.0,
            "alert_level": "none"
          },
          {
            "day": 6,
            "date": "2026-05-30",
            "tmax": 21.2,
            "tmin": 11.1,
            "rh": 44.9,
            "heat_index": 21.2,
            "severity": 0.0,
            "alert_level": "none"
          }
        ]
      }
    },
    {
      "type": "Feature",
      "geometry": {
        "type": "Point",
        "coordinates": [
          -5.551,
          33.892
        ]
      },
      "properties": {
        "name": "Mekn\u00e8s",
        "alert_level": "yellow",
        "severity": 0.3,
        "forecasts": [
          {
            "day": 0,
            "date": "2026-05-24",
            "tmax": 32.9,
            "tmin": 18.0,
            "rh": 17.2,
            "heat_index": 32.9,
            "severity": 0.3,
            "alert_level": "yellow"
          },
          {
            "day": 1,
            "date": "2026-05-25",
            "tmax": 32.6,
            "tmin": 18.0,
            "rh": 19.6,
            "heat_index": 32.6,
            "severity": 0.0,
            "alert_level": "none"
          },
          {
            "day": 2,
            "date": "2026-05-26",
            "tmax": 32.1,
            "tmin": 17.8,
            "rh": 22.3,
            "heat_index": 32.1,
            "severity": 0.0,
            "alert_level": "none"
          },
          {
            "day": 3,
            "date": "2026-05-27",
            "tmax": 32.1,
            "tmin": 17.7,
            "rh": 24.8,
            "heat_index": 32.1,
            "severity": 0.0,
            "alert_level": "none"
          },
          {
            "day": 4,
            "date": "2026-05-28",
            "tmax": 31.8,
            "tmin": 17.8,
            "rh": 26.4,
            "heat_index": 31.8,
            "severity": 0.0,
            "alert_level": "none"
          },
          {
            "day": 5,
            "date": "2026-05-29",
            "tmax": 31.8,
            "tmin": 18.0,
            "rh": 29.1,
            "heat_index": 31.8,
            "severity": 0.0,
            "alert_level": "none"
          },
          {
            "day": 6,
            "date": "2026-05-30",
            "tmax": 31.4,
            "tmin": 18.3,
            "rh": 26.9,
            "heat_index": 31.4,
            "severity": 0.0,
            "alert_level": "none"
          }
        ]
      }
    },
    {
      "type": "Feature",
      "geometry": {
        "type": "Point",
        "coordinates": [
          -1.9086,
          34.6814
        ]
      },
      "properties": {
        "name": "Oujda",
        "alert_level": "none",
        "severity": 0.0,
        "forecasts": [
          {
            "day": 0,
            "date": "2026-05-24",
            "tmax": 25.7,
            "tmin": 14.2,
            "rh": 35.4,
            "heat_index": 25.7,
            "severity": 0.0,
            "alert_level": "none"
          },
          {
            "day": 1,
            "date": "2026-05-25",
            "tmax": 25.5,
            "tmin": 14.2,
            "rh": 33.0,
            "heat_index": 25.5,
            "severity": 0.0,
            "alert_level": "none"
          },
          {
            "day": 2,
            "date": "2026-05-26",
            "tmax": 25.6,
            "tmin": 13.9,
            "rh": 35.4,
            "heat_index": 25.6,
            "severity": 0.0,
            "alert_level": "none"
          },
          {
            "day": 3,
            "date": "2026-05-27",
            "tmax": 25.4,
            "tmin": 13.9,
            "rh": 39.1,
            "heat_index": 25.4,
            "severity": 0.0,
            "alert_level": "none"
          },
          {
            "day": 4,
            "date": "2026-05-28",
            "tmax": 25.3,
            "tmin": 13.5,
            "rh": 37.6,
            "heat_index": 25.3,
            "severity": 0.0,
            "alert_level": "none"
          },
          {
            "day": 5,
            "date": "2026-05-29",
            "tmax": 26.0,
            "tmin": 13.7,
            "rh": 39.7,
            "heat_index": 26.0,
            "severity": 0.0,
            "alert_level": "none"
          },
          {
            "day": 6,
            "date": "2026-05-30",
            "tmax": 25.4,
            "tmin": 13.8,
            "rh": 38.3,
            "heat_index": 25.4,
            "severity": 0.0,
            "alert_level": "none"
          }
        ]
      }
    },
    {
      "type": "Feature",
      "geometry": {
        "type": "Point",
        "coordinates": [
          -6.5802,
          34.261
        ]
      },
      "properties": {
        "name": "K\u00e9nitra",
        "alert_level": "orange",
        "severity": 4.5,
        "forecasts": [
          {
            "day": 0,
            "date": "2026-05-24",
            "tmax": 29.6,
            "tmin": 16.8,
            "rh": 28.6,
            "heat_index": 29.6,
            "severity": 4.5,
            "alert_level": "orange"
          },
          {
            "day": 1,
            "date": "2026-05-25",
            "tmax": 29.2,
            "tmin": 16.8,
            "rh": 29.7,
            "heat_index": 29.2,
            "severity": 4.1,
            "alert_level": "orange"
          },
          {
            "day": 2,
            "date": "2026-05-26",
            "tmax": 28.8,
            "tmin": 16.3,
            "rh": 32.6,
            "heat_index": 28.8,
            "severity": 3.7,
            "alert_level": "orange"
          },
          {
            "day": 3,
            "date": "2026-05-27",
            "tmax": 29.0,
            "tmin": 16.2,
            "rh": 35.7,
            "heat_index": 29.0,
            "severity": 3.9,
            "alert_level": "orange"
          },
          {
            "day": 4,
            "date": "2026-05-28",
            "tmax": 28.4,
            "tmin": 16.4,
            "rh": 37.1,
            "heat_index": 28.4,
            "severity": 3.3,
            "alert_level": "orange"
          },
          {
            "day": 5,
            "date": "2026-05-29",
            "tmax": 28.4,
            "tmin": 16.3,
            "rh": 39.2,
            "heat_index": 28.4,
            "severity": 3.3,
            "alert_level": "orange"
          },
          {
            "day": 6,
            "date": "2026-05-30",
            "tmax": 28.1,
            "tmin": 16.5,
            "rh": 37.8,
            "heat_index": 28.1,
            "severity": 3.0,
            "alert_level": "orange"
          }
        ]
      }
    },
    {
      "type": "Feature",
      "geometry": {
        "type": "Point",
        "coordinates": [
          -5.3626,
          35.5889
        ]
      },
      "properties": {
        "name": "T\u00e9touan",
        "alert_level": "none",
        "severity": 0.0,
        "forecasts": [
          {
            "day": 0,
            "date": "2026-05-24",
            "tmax": 22.8,
            "tmin": 12.7,
            "rh": 41.0,
            "heat_index": 22.8,
            "severity": 0.0,
            "alert_level": "none"
          },
          {
            "day": 1,
            "date": "2026-05-25",
            "tmax": 22.4,
            "tmin": 12.6,
            "rh": 38.5,
            "heat_index": 22.4,
            "severity": 0.0,
            "alert_level": "none"
          },
          {
            "day": 2,
            "date": "2026-05-26",
            "tmax": 21.8,
            "tmin": 12.4,
            "rh": 40.6,
            "heat_index": 21.8,
            "severity": 0.0,
            "alert_level": "none"
          },
          {
            "day": 3,
            "date": "2026-05-27",
            "tmax": 21.7,
            "tmin": 12.1,
            "rh": 42.1,
            "heat_index": 21.7,
            "severity": 0.0,
            "alert_level": "none"
          },
          {
            "day": 4,
            "date": "2026-05-28",
            "tmax": 21.8,
            "tmin": 11.6,
            "rh": 41.7,
            "heat_index": 21.8,
            "severity": 0.0,
            "alert_level": "none"
          },
          {
            "day": 5,
            "date": "2026-05-29",
            "tmax": 22.1,
            "tmin": 11.8,
            "rh": 41.8,
            "heat_index": 22.1,
            "severity": 0.0,
            "alert_level": "none"
          },
          {
            "day": 6,
            "date": "2026-05-30",
            "tmax": 21.0,
            "tmin": 10.9,
            "rh": 41.6,
            "heat_index": 21.0,
            "severity": 0.0,
            "alert_level": "none"
          }
        ]
      }
    },
    {
      "type": "Feature",
      "geometry": {
        "type": "Point",
        "coordinates": [
          -9.2372,
          32.2994
        ]
      },
      "properties": {
        "name": "Safi",
        "alert_level": "orange",
        "severity": 3.1,
        "forecasts": [
          {
            "day": 0,
            "date": "2026-05-24",
            "tmax": 28.0,
            "tmin": 17.2,
            "rh": 36.8,
            "heat_index": 28.0,
            "severity": 3.1,
            "alert_level": "orange"
          },
          {
            "day": 1,
            "date": "2026-05-25",
            "tmax": 27.7,
            "tmin": 16.9,
            "rh": 35.3,
            "heat_index": 27.7,
            "severity": 2.8,
            "alert_level": "orange"
          },
          {
            "day": 2,
            "date": "2026-05-26",
            "tmax": 27.6,
            "tmin": 16.2,
            "rh": 35.7,
            "heat_index": 27.6,
            "severity": 2.7,
            "alert_level": "orange"
          },
          {
            "day": 3,
            "date": "2026-05-27",
            "tmax": 27.4,
            "tmin": 15.8,
            "rh": 37.2,
            "heat_index": 27.4,
            "severity": 2.5,
            "alert_level": "orange"
          },
          {
            "day": 4,
            "date": "2026-05-28",
            "tmax": 27.1,
            "tmin": 15.9,
            "rh": 38.0,
            "heat_index": 27.1,
            "severity": 2.2,
            "alert_level": "orange"
          },
          {
            "day": 5,
            "date": "2026-05-29",
            "tmax": 26.5,
            "tmin": 15.5,
            "rh": 39.0,
            "heat_index": 26.5,
            "severity": 1.6,
            "alert_level": "yellow"
          },
          {
            "day": 6,
            "date": "2026-05-30",
            "tmax": 26.5,
            "tmin": 15.6,
            "rh": 39.1,
            "heat_index": 26.5,
            "severity": 1.6,
            "alert_level": "yellow"
          }
        ]
      }
    },
    {
      "type": "Feature",
      "geometry": {
        "type": "Point",
        "coordinates": [
          -8.4552,
          33.3093
        ]
      },
      "properties": {
        "name": "Mohamm\u00e9dia",
        "alert_level": "orange",
        "severity": 3.2,
        "forecasts": [
          {
            "day": 0,
            "date": "2026-05-24",
            "tmax": 26.8,
            "tmin": 15.6,
            "rh": 36.7,
            "heat_index": 26.8,
            "severity": 3.2,
            "alert_level": "orange"
          },
          {
            "day": 1,
            "date": "2026-05-25",
            "tmax": 26.4,
            "tmin": 15.4,
            "rh": 34.8,
            "heat_index": 26.4,
            "severity": 2.9,
            "alert_level": "orange"
          },
          {
            "day": 2,
            "date": "2026-05-26",
            "tmax": 26.1,
            "tmin": 15.0,
            "rh": 38.5,
            "heat_index": 26.1,
            "severity": 2.5,
            "alert_level": "orange"
          },
          {
            "day": 3,
            "date": "2026-05-27",
            "tmax": 26.0,
            "tmin": 14.8,
            "rh": 41.3,
            "heat_index": 26.0,
            "severity": 2.5,
            "alert_level": "orange"
          },
          {
            "day": 4,
            "date": "2026-05-28",
            "tmax": 25.6,
            "tmin": 14.7,
            "rh": 42.1,
            "heat_index": 25.6,
            "severity": 2.1,
            "alert_level": "orange"
          },
          {
            "day": 5,
            "date": "2026-05-29",
            "tmax": 25.7,
            "tmin": 14.5,
            "rh": 45.6,
            "heat_index": 25.7,
            "severity": 2.1,
            "alert_level": "orange"
          },
          {
            "day": 6,
            "date": "2026-05-30",
            "tmax": 25.1,
            "tmin": 14.7,
            "rh": 43.9,
            "heat_index": 25.1,
            "severity": 1.6,
            "alert_level": "yellow"
          }
        ]
      }
    },
    {
      "type": "Feature",
      "geometry": {
        "type": "Point",
        "coordinates": [
          -6.3498,
          32.3373
        ]
      },
      "properties": {
        "name": "B\u00e9ni Mellal",
        "alert_level": "none",
        "severity": 0.0,
        "forecasts": [
          {
            "day": 0,
            "date": "2026-05-24",
            "tmax": 28.6,
            "tmin": 16.1,
            "rh": 25.3,
            "heat_index": 28.6,
            "severity": 0.0,
            "alert_level": "none"
          },
          {
            "day": 1,
            "date": "2026-05-25",
            "tmax": 28.2,
            "tmin": 15.8,
            "rh": 24.7,
            "heat_index": 28.2,
            "severity": 0.0,
            "alert_level": "none"
          },
          {
            "day": 2,
            "date": "2026-05-26",
            "tmax": 27.8,
            "tmin": 16.1,
            "rh": 28.1,
            "heat_index": 27.8,
            "severity": 0.0,
            "alert_level": "none"
          },
          {
            "day": 3,
            "date": "2026-05-27",
            "tmax": 27.4,
            "tmin": 15.2,
            "rh": 29.6,
            "heat_index": 27.4,
            "severity": 0.0,
            "alert_level": "none"
          },
          {
            "day": 4,
            "date": "2026-05-28",
            "tmax": 27.1,
            "tmin": 15.0,
            "rh": 30.7,
            "heat_index": 27.1,
            "severity": 0.0,
            "alert_level": "none"
          },
          {
            "day": 5,
            "date": "2026-05-29",
            "tmax": 26.9,
            "tmin": 14.6,
            "rh": 32.3,
            "heat_index": 26.9,
            "severity": 0.0,
            "alert_level": "none"
          },
          {
            "day": 6,
            "date": "2026-05-30",
            "tmax": 26.7,
            "tmin": 14.6,
            "rh": 30.8,
            "heat_index": 26.7,
            "severity": 0.0,
            "alert_level": "none"
          }
        ]
      }
    },
    {
      "type": "Feature",
      "geometry": {
        "type": "Point",
        "coordinates": [
          -2.9333,
          35.1667
        ]
      },
      "properties": {
        "name": "Nador",
        "alert_level": "none",
        "severity": 0.0,
        "forecasts": [
          {
            "day": 0,
            "date": "2026-05-24",
            "tmax": 22.7,
            "tmin": 13.2,
            "rh": 43.3,
            "heat_index": 22.7,
            "severity": 0.0,
            "alert_level": "none"
          },
          {
            "day": 1,
            "date": "2026-05-25",
            "tmax": 22.9,
            "tmin": 13.3,
            "rh": 39.6,
            "heat_index": 22.9,
            "severity": 0.0,
            "alert_level": "none"
          },
          {
            "day": 2,
            "date": "2026-05-26",
            "tmax": 22.9,
            "tmin": 12.9,
            "rh": 40.8,
            "heat_index": 22.9,
            "severity": 0.0,
            "alert_level": "none"
          },
          {
            "day": 3,
            "date": "2026-05-27",
            "tmax": 22.4,
            "tmin": 12.9,
            "rh": 43.8,
            "heat_index": 22.4,
            "severity": 0.0,
            "alert_level": "none"
          },
          {
            "day": 4,
            "date": "2026-05-28",
            "tmax": 22.7,
            "tmin": 12.3,
            "rh": 42.2,
            "heat_index": 22.7,
            "severity": 0.0,
            "alert_level": "none"
          },
          {
            "day": 5,
            "date": "2026-05-29",
            "tmax": 22.9,
            "tmin": 12.2,
            "rh": 44.1,
            "heat_index": 22.9,
            "severity": 0.0,
            "alert_level": "none"
          },
          {
            "day": 6,
            "date": "2026-05-30",
            "tmax": 22.2,
            "tmin": 11.9,
            "rh": 43.7,
            "heat_index": 22.2,
            "severity": 0.0,
            "alert_level": "none"
          }
        ]
      }
    },
    {
      "type": "Feature",
      "geometry": {
        "type": "Point",
        "coordinates": [
          -4.012,
          34.2155
        ]
      },
      "properties": {
        "name": "Taza",
        "alert_level": "none",
        "severity": 0.0,
        "forecasts": [
          {
            "day": 0,
            "date": "2026-05-24",
            "tmax": 28.7,
            "tmin": 15.2,
            "rh": 24.8,
            "heat_index": 28.7,
            "severity": 0.0,
            "alert_level": "none"
          },
          {
            "day": 1,
            "date": "2026-05-25",
            "tmax": 28.5,
            "tmin": 15.2,
            "rh": 25.3,
            "heat_index": 28.5,
            "severity": 0.0,
            "alert_level": "none"
          },
          {
            "day": 2,
            "date": "2026-05-26",
            "tmax": 28.4,
            "tmin": 15.1,
            "rh": 27.0,
            "heat_index": 28.4,
            "severity": 0.0,
            "alert_level": "none"
          },
          {
            "day": 3,
            "date": "2026-05-27",
            "tmax": 28.3,
            "tmin": 14.9,
            "rh": 31.3,
            "heat_index": 28.3,
            "severity": 0.0,
            "alert_level": "none"
          },
          {
            "day": 4,
            "date": "2026-05-28",
            "tmax": 28.3,
            "tmin": 14.9,
            "rh": 30.5,
            "heat_index": 28.3,
            "severity": 0.0,
            "alert_level": "none"
          },
          {
            "day": 5,
            "date": "2026-05-29",
            "tmax": 28.9,
            "tmin": 15.1,
            "rh": 32.7,
            "heat_index": 28.9,
            "severity": 0.0,
            "alert_level": "none"
          },
          {
            "day": 6,
            "date": "2026-05-30",
            "tmax": 28.6,
            "tmin": 15.5,
            "rh": 31.4,
            "heat_index": 28.6,
            "severity": 0.0,
            "alert_level": "none"
          }
        ]
      }
    },
    {
      "type": "Feature",
      "geometry": {
        "type": "Point",
        "coordinates": [
          -7.6166,
          33.001
        ]
      },
      "properties": {
        "name": "Settat",
        "alert_level": "orange",
        "severity": 4.1,
        "forecasts": [
          {
            "day": 0,
            "date": "2026-05-24",
            "tmax": 33.1,
            "tmin": 19.1,
            "rh": 19.7,
            "heat_index": 33.1,
            "severity": 4.1,
            "alert_level": "orange"
          },
          {
            "day": 1,
            "date": "2026-05-25",
            "tmax": 32.7,
            "tmin": 19.0,
            "rh": 21.8,
            "heat_index": 32.7,
            "severity": 3.7,
            "alert_level": "orange"
          },
          {
            "day": 2,
            "date": "2026-05-26",
            "tmax": 32.3,
            "tmin": 18.8,
            "rh": 24.3,
            "heat_index": 32.3,
            "severity": 3.3,
            "alert_level": "orange"
          },
          {
            "day": 3,
            "date": "2026-05-27",
            "tmax": 32.0,
            "tmin": 18.4,
            "rh": 26.6,
            "heat_index": 32.0,
            "severity": 3.0,
            "alert_level": "orange"
          },
          {
            "day": 4,
            "date": "2026-05-28",
            "tmax": 31.3,
            "tmin": 18.5,
            "rh": 28.7,
            "heat_index": 31.3,
            "severity": 2.3,
            "alert_level": "orange"
          },
          {
            "day": 5,
            "date": "2026-05-29",
            "tmax": 30.7,
            "tmin": 18.2,
            "rh": 31.1,
            "heat_index": 30.7,
            "severity": 1.7,
            "alert_level": "yellow"
          },
          {
            "day": 6,
            "date": "2026-05-30",
            "tmax": 30.6,
            "tmin": 18.2,
            "rh": 29.3,
            "heat_index": 30.6,
            "severity": 1.6,
            "alert_level": "yellow"
          }
        ]
      }
    },
    {
      "type": "Feature",
      "geometry": {
        "type": "Point",
        "coordinates": [
          -6.9063,
          32.8811
        ]
      },
      "properties": {
        "name": "Khouribga",
        "alert_level": "orange",
        "severity": 3.3,
        "forecasts": [
          {
            "day": 0,
            "date": "2026-05-24",
            "tmax": 33.4,
            "tmin": 19.2,
            "rh": 17.9,
            "heat_index": 33.4,
            "severity": 3.3,
            "alert_level": "orange"
          },
          {
            "day": 1,
            "date": "2026-05-25",
            "tmax": 33.1,
            "tmin": 19.1,
            "rh": 20.0,
            "heat_index": 33.1,
            "severity": 2.9,
            "alert_level": "orange"
          },
          {
            "day": 2,
            "date": "2026-05-26",
            "tmax": 32.7,
            "tmin": 18.9,
            "rh": 22.2,
            "heat_index": 32.7,
            "severity": 2.5,
            "alert_level": "orange"
          },
          {
            "day": 3,
            "date": "2026-05-27",
            "tmax": 32.4,
            "tmin": 18.5,
            "rh": 24.4,
            "heat_index": 32.4,
            "severity": 2.3,
            "alert_level": "orange"
          },
          {
            "day": 4,
            "date": "2026-05-28",
            "tmax": 31.7,
            "tmin": 18.6,
            "rh": 26.5,
            "heat_index": 31.7,
            "severity": 1.6,
            "alert_level": "yellow"
          },
          {
            "day": 5,
            "date": "2026-05-29",
            "tmax": 31.2,
            "tmin": 18.4,
            "rh": 29.0,
            "heat_index": 31.2,
            "severity": 1.1,
            "alert_level": "yellow"
          },
          {
            "day": 6,
            "date": "2026-05-30",
            "tmax": 31.1,
            "tmin": 18.3,
            "rh": 27.4,
            "heat_index": 31.1,
            "severity": 0.9,
            "alert_level": "yellow"
          }
        ]
      }
    },
    {
      "type": "Feature",
      "geometry": {
        "type": "Point",
        "coordinates": [
          -4.4244,
          31.9314
        ]
      },
      "properties": {
        "name": "Errachidia",
        "alert_level": "none",
        "severity": 0.0,
        "forecasts": [
          {
            "day": 0,
            "date": "2026-05-24",
            "tmax": 29.3,
            "tmin": 16.4,
            "rh": 27.1,
            "heat_index": 29.3,
            "severity": 0.0,
            "alert_level": "none"
          },
          {
            "day": 1,
            "date": "2026-05-25",
            "tmax": 28.7,
            "tmin": 16.1,
            "rh": 23.7,
            "heat_index": 28.7,
            "severity": 0.0,
            "alert_level": "none"
          },
          {
            "day": 2,
            "date": "2026-05-26",
            "tmax": 28.9,
            "tmin": 16.1,
            "rh": 25.1,
            "heat_index": 28.9,
            "severity": 0.0,
            "alert_level": "none"
          },
          {
            "day": 3,
            "date": "2026-05-27",
            "tmax": 28.6,
            "tmin": 15.4,
            "rh": 28.6,
            "heat_index": 28.6,
            "severity": 0.0,
            "alert_level": "none"
          },
          {
            "day": 4,
            "date": "2026-05-28",
            "tmax": 27.9,
            "tmin": 15.2,
            "rh": 27.9,
            "heat_index": 27.9,
            "severity": 0.0,
            "alert_level": "none"
          },
          {
            "day": 5,
            "date": "2026-05-29",
            "tmax": 27.7,
            "tmin": 15.1,
            "rh": 31.5,
            "heat_index": 27.7,
            "severity": 0.0,
            "alert_level": "none"
          },
          {
            "day": 6,
            "date": "2026-05-30",
            "tmax": 27.3,
            "tmin": 15.3,
            "rh": 29.7,
            "heat_index": 27.3,
            "severity": 0.0,
            "alert_level": "none"
          }
        ]
      }
    },
    {
      "type": "Feature",
      "geometry": {
        "type": "Point",
        "coordinates": [
          -13.2003,
          27.1525
        ]
      },
      "properties": {
        "name": "La\u00e2youne",
        "alert_level": "orange",
        "severity": 3.3,
        "forecasts": [
          {
            "day": 0,
            "date": "2026-05-24",
            "tmax": 24.3,
            "tmin": 19.3,
            "rh": 74.2,
            "heat_index": 24.3,
            "severity": 0.0,
            "alert_level": "none"
          },
          {
            "day": 1,
            "date": "2026-05-25",
            "tmax": 25.9,
            "tmin": 20.6,
            "rh": 72.0,
            "heat_index": 25.9,
            "severity": 0.0,
            "alert_level": "none"
          },
          {
            "day": 2,
            "date": "2026-05-26",
            "tmax": 27.0,
            "tmin": 20.7,
            "rh": 66.1,
            "heat_index": 28.5,
            "severity": 0.7,
            "alert_level": "yellow"
          },
          {
            "day": 3,
            "date": "2026-05-27",
            "tmax": 28.1,
            "tmin": 20.6,
            "rh": 64.5,
            "heat_index": 30.2,
            "severity": 1.8,
            "alert_level": "yellow"
          },
          {
            "day": 4,
            "date": "2026-05-28",
            "tmax": 28.2,
            "tmin": 21.6,
            "rh": 57.6,
            "heat_index": 29.4,
            "severity": 1.9,
            "alert_level": "yellow"
          },
          {
            "day": 5,
            "date": "2026-05-29",
            "tmax": 28.1,
            "tmin": 21.3,
            "rh": 54.4,
            "heat_index": 29.0,
            "severity": 1.8,
            "alert_level": "yellow"
          },
          {
            "day": 6,
            "date": "2026-05-30",
            "tmax": 29.6,
            "tmin": 22.7,
            "rh": 52.9,
            "heat_index": 30.9,
            "severity": 3.3,
            "alert_level": "orange"
          }
        ]
      }
    },
    {
      "type": "Feature",
      "geometry": {
        "type": "Point",
        "coordinates": [
          -3.9317,
          35.2442
        ]
      },
      "properties": {
        "name": "Al Hoce\u00efma",
        "alert_level": "none",
        "severity": 0.0,
        "forecasts": [
          {
            "day": 0,
            "date": "2026-05-24",
            "tmax": 22.6,
            "tmin": 13.2,
            "rh": 44.5,
            "heat_index": 22.6,
            "severity": 0.0,
            "alert_level": "none"
          },
          {
            "day": 1,
            "date": "2026-05-25",
            "tmax": 22.9,
            "tmin": 13.4,
            "rh": 41.1,
            "heat_index": 22.9,
            "severity": 0.0,
            "alert_level": "none"
          },
          {
            "day": 2,
            "date": "2026-05-26",
            "tmax": 22.8,
            "tmin": 13.0,
            "rh": 42.1,
            "heat_index": 22.8,
            "severity": 0.0,
            "alert_level": "none"
          },
          {
            "day": 3,
            "date": "2026-05-27",
            "tmax": 22.3,
            "tmin": 13.1,
            "rh": 45.0,
            "heat_index": 22.3,
            "severity": 0.0,
            "alert_level": "none"
          },
          {
            "day": 4,
            "date": "2026-05-28",
            "tmax": 22.7,
            "tmin": 12.4,
            "rh": 43.5,
            "heat_index": 22.7,
            "severity": 0.0,
            "alert_level": "none"
          },
          {
            "day": 5,
            "date": "2026-05-29",
            "tmax": 22.9,
            "tmin": 12.4,
            "rh": 44.8,
            "heat_index": 22.9,
            "severity": 0.0,
            "alert_level": "none"
          },
          {
            "day": 6,
            "date": "2026-05-30",
            "tmax": 22.2,
            "tmin": 12.1,
            "rh": 44.7,
            "heat_index": 22.2,
            "severity": 0.0,
            "alert_level": "none"
          }
        ]
      }
    },
    {
      "type": "Feature",
      "geometry": {
        "type": "Point",
        "coordinates": [
          -9.77,
          31.5125
        ]
      },
      "properties": {
        "name": "Essaouira",
        "alert_level": "red",
        "severity": 7.1,
        "forecasts": [
          {
            "day": 0,
            "date": "2026-05-24",
            "tmax": 30.4,
            "tmin": 19.7,
            "rh": 36.2,
            "heat_index": 30.4,
            "severity": 6.5,
            "alert_level": "red"
          },
          {
            "day": 1,
            "date": "2026-05-25",
            "tmax": 30.4,
            "tmin": 19.3,
            "rh": 36.0,
            "heat_index": 30.4,
            "severity": 6.5,
            "alert_level": "red"
          },
          {
            "day": 2,
            "date": "2026-05-26",
            "tmax": 30.1,
            "tmin": 18.9,
            "rh": 36.3,
            "heat_index": 30.1,
            "severity": 6.2,
            "alert_level": "red"
          },
          {
            "day": 3,
            "date": "2026-05-27",
            "tmax": 31.0,
            "tmin": 18.8,
            "rh": 33.2,
            "heat_index": 31.0,
            "severity": 7.1,
            "alert_level": "red"
          },
          {
            "day": 4,
            "date": "2026-05-28",
            "tmax": 30.9,
            "tmin": 19.2,
            "rh": 34.4,
            "heat_index": 30.9,
            "severity": 7.0,
            "alert_level": "red"
          },
          {
            "day": 5,
            "date": "2026-05-29",
            "tmax": 30.1,
            "tmin": 19.7,
            "rh": 34.9,
            "heat_index": 30.1,
            "severity": 6.2,
            "alert_level": "red"
          },
          {
            "day": 6,
            "date": "2026-05-30",
            "tmax": 30.4,
            "tmin": 19.3,
            "rh": 37.2,
            "heat_index": 30.4,
            "severity": 6.5,
            "alert_level": "red"
          }
        ]
      }
    },
    {
      "type": "Feature",
      "geometry": {
        "type": "Point",
        "coordinates": [
          -10.0633,
          28.9884
        ]
      },
      "properties": {
        "name": "Guelmim",
        "alert_level": "red",
        "severity": 8.2,
        "forecasts": [
          {
            "day": 0,
            "date": "2026-05-24",
            "tmax": 38.3,
            "tmin": 22.2,
            "rh": 25.7,
            "heat_index": 38.6,
            "severity": 7.2,
            "alert_level": "red"
          },
          {
            "day": 1,
            "date": "2026-05-25",
            "tmax": 38.9,
            "tmin": 22.5,
            "rh": 25.0,
            "heat_index": 39.3,
            "severity": 7.8,
            "alert_level": "red"
          },
          {
            "day": 2,
            "date": "2026-05-26",
            "tmax": 38.7,
            "tmin": 23.1,
            "rh": 23.4,
            "heat_index": 38.7,
            "severity": 7.6,
            "alert_level": "red"
          },
          {
            "day": 3,
            "date": "2026-05-27",
            "tmax": 39.3,
            "tmin": 22.7,
            "rh": 17.9,
            "heat_index": 39.3,
            "severity": 8.2,
            "alert_level": "red"
          },
          {
            "day": 4,
            "date": "2026-05-28",
            "tmax": 39.1,
            "tmin": 23.2,
            "rh": 17.0,
            "heat_index": 39.1,
            "severity": 8.0,
            "alert_level": "red"
          },
          {
            "day": 5,
            "date": "2026-05-29",
            "tmax": 37.9,
            "tmin": 24.4,
            "rh": 15.9,
            "heat_index": 37.9,
            "severity": 6.8,
            "alert_level": "red"
          },
          {
            "day": 6,
            "date": "2026-05-30",
            "tmax": 37.5,
            "tmin": 23.9,
            "rh": 15.6,
            "heat_index": 37.5,
            "severity": 6.3,
            "alert_level": "red"
          }
        ]
      }
    }
  ]
}